{"type": "FeatureCollection", "features": [ {"type": "Feature", "properties": {"norad_id": 35175, "name": "FENGYUN 1C DEB", "group": "fengyun-1c-debris", "lat": 31.98705948161777, "lon": -9.153017316405716, "alt_km": 836.6272413847873, "timestamp": "2025-12-13T22:39:29.997870+00:00", "meta": {"OBJECT_NAME": "FENGYUN 1C DEB", "OBJECT_ID": "1999-025DNF", "EPOCH": "2025-12-07T17:49:32.813760", "MEAN_MOTION": 14.2129013, "ECCENTRICITY": 0.00571803, "INCLINATION": 98.5747, "RA_OF_ASC_NODE": 350.2325, "ARG_OF_PERICENTER": 294.8485, "MEAN_ANOMALY": 64.6753, "EPHEMERIS_TYPE": 0, "CLASSIFICATION_TYPE": "U", "NORAD_CAT_ID": 35175, "ELEMENT_SET_NO": 999, "REV_AT_EPOCH": 61164, "BSTAR": 0.00067844318, "MEAN_MOTION_DOT": 1.46e-05, "MEAN_MOTION_DDOT": 0}, "tle": {"line1": "1 35175U 99025DNF 25341.74274090  .00001460  00000+0  67844-3 0  9996", "line2": "2 35175  98.5747 350.2325 0057180 294.8485  64.6753 14.21290130611646"}}, "geometry": {"type": "Point", "coordinates": [-9.153017316405716, 31.98705948161777]}}, {"type": "Feature", "properties": {"norad_id": 35176, "name": "FENGYUN 1C DEB", "group": "fengyun-1c-debris", "lat": 31.363209782961867, "lon": -30.60243354354247, "alt_km": 796.9626434205484, "timestamp": "2025-12-13T22:39:29.997880+00:00", "meta": {"OBJECT_NAME": "FENGYUN 1C DEB", "OBJECT_ID": "1999-025DNG", "EPOCH": "2025-12-12T05:50:16.890720", "MEAN_MOTION": 14.16993705, "ECCENTRICITY": 0.00546387, "INCLINATION": 98.5548, "RA_OF_ASC_NODE": 333.0256, "ARG_OF_PERICENTER": 58.0358, "MEAN_ANOMALY": 302.6113, "EPHEMERIS_TYPE": 0, "CLASSIFICATION_TYPE": "U", "NORAD_CAT_ID": 35176, "ELEMENT_SET_NO": 999, "REV_AT_EPOCH": 90921, "BSTAR": 0.00052794791, "MEAN_MOTION_DOT": 1.035e-05, "MEAN_MOTION_DDOT": 0}, "tle": {"line1": "1 35176U 99025DNG 25346.24325105  .00001035  00000+0  52795-3 0  9998", "line2": "2 35176  98.5548 333.0256 0054638  58.0358 302.6113 14.16993705909212"}}, "geometry": {"type": "Point", "coordinates": [-30.60243354354247, 31.363209782961867]}}, {"type": "Feature", "properties": {"norad_id": 35191, "name": "FENGYUN 1C DEB", "group": "fengyun-1c-debris", "lat": 34.84788335220063, "lon": -36.53793409720655, "alt_km": 995.4990287340861, "timestamp": "2025-12-13T22:39:29.997890+00:00", "meta": {"OBJECT_NAME": "FENGYUN 1C DEB", "OBJECT_ID": "1999-025DNX", "EPOCH": "2025-12-10T04:43:45.837120", "MEAN_MOTION": 13.91201737, "ECCENTRICITY": 0.0102149, "INCLINATION": 99.0153, "RA_OF_ASC_NODE": 326.1699, "ARG_OF_PERICENTER": 215.7402, "MEAN_ANOMALY": 143.6891, "EPHEMERIS_TYPE": 0, "CLASSIFICATION_TYPE": "U", "NORAD_CAT_ID": 35191, "ELEMENT_SET_NO": 999, "REV_AT_EPOCH": 87866, "BSTAR": 0.00022431, "MEAN_MOTION_DOT": 2.51e-06, "MEAN_MOTION_DDOT": 0}, "tle": {"line1": "1 35191U 99025DNX 25344.19705830  .00000251  00000+0  22431-3 0  9997", "line2": "2 35191  99.0153 326.1699 0102149 215.7402 143.6891 13.91201737878663"}}, "geometry": {"type": "Point", "coordinates": [-36.53793409720655, 34.84788335220063]}}, {"type": "Feature", "properties": {"norad_id": 35194, "name": "FENGYUN 1C DEB", "group": "fengyun-1c-debris", "lat": -60.238281000651035, "lon": -124.63127087480346, "alt_km": 778.7569051071296, "timestamp": "2025-12-13T22:39:29.997900+00:00", "meta": {"OBJECT_NAME": "FENGYUN 1C DEB", "OBJECT_ID": "1999-025DPA", "EPOCH": "2025-12-12T01:09:46.826496", "MEAN_MOTION": 14.60293761, "ECCENTRICITY": 0.01145377, "INCLINATION": 98.9481, "RA_OF_ASC_NODE": 69.3173, "ARG_OF_PERICENTER": 78.0348, "MEAN_ANOMALY": 283.3663, "EPHEMERIS_TYPE": 0, "CLASSIFICATION_TYPE": "U", "NORAD_CAT_ID": 35194, "ELEMENT_SET_NO": 999, "REV_AT_EPOCH": 65380, "BSTAR": 0.0013884757, "MEAN_MOTION_DOT": 7.302e-05, "MEAN_MOTION_DDOT": 0}, "tle": {"line1": "1 35194U 99025DPA 25346.04845864  .00007302  00000+0  13885-2 0  9994", "line2": "2 35194  98.9481  69.3173 0114537  78.0348 283.3663 14.60293761653805"}}, "geometry": {"type": "Point", "coordinates": [-124.63127087480346, -60.238281000651035]}}, {"type": "Feature", "properties": {"norad_id": 35195, "name": "FENGYUN 1C DEB", "group": "fengyun-1c-debris", "lat": -49.39078458861897, "lon": -108.27019320598433, "alt_km": 783.926424926176, "timestamp": "2025-12-13T22:39:29.997910+00:00", "meta": {"OBJECT_NAME": "FENGYUN 1C DEB", "OBJECT_ID": "1999-025DPB", "EPOCH": "2025-12-10T12:47:45.242592", "MEAN_MOTION": 14.55993438, "ECCENTRICITY": 0.01037763, "INCLINATION": 98.9828, "RA_OF_ASC_NODE": 78.6916, "ARG_OF_PERICENTER": 75.1357, "MEAN_ANOMALY": 286.1305, "EPHEMERIS_TYPE": 0, "CLASSIFICATION_TYPE": "U", "NORAD_CAT_ID": 35195, "ELEMENT_SET_NO": 999, "REV_AT_EPOCH": 90894, "BSTAR": 0.0011905179, "MEAN_MOTION_DOT": 5.58e-05, "MEAN_MOTION_DDOT": 0}, "tle": {"line1": "1 35195U 99025DPB 25344.53316253  .00005580  00000+0  11905-2 0  9999", "line2": "2 35195  98.9828  78.6916 0103776  75.1357 286.1305 14.55993438908944"}}, "geometry": {"type": "Point", "coordinates": [-108.27019320598433, -49.39078458861897]}}, {"type": "Feature", "properties": {"norad_id": 35196, "name": "FENGYUN 1C DEB", "group": "fengyun-1c-debris", "lat": -16.15310094530379, "lon": -179.4206666596184, "alt_km": 945.3170086982354, "timestamp": "2025-12-13T22:39:29.997920+00:00", "meta": {"OBJECT_NAME": "FENGYUN 1C DEB", "OBJECT_ID": "1999-025DPC", "EPOCH": "2025-12-12T19:31:35.471136", "MEAN_MOTION": 14.19786868, "ECCENTRICITY": 0.02144448, "INCLINATION": 98.5367, "RA_OF_ASC_NODE": 1.9816, "ARG_OF_PERICENTER": 338.1391, "MEAN_ANOMALY": 204.7781, "EPHEMERIS_TYPE": 0, "CLASSIFICATION_TYPE": "U", "NORAD_CAT_ID": 35196, "ELEMENT_SET_NO": 999, "REV_AT_EPOCH": 89135, "BSTAR": 0.0013206205, "MEAN_MOTION_DOT": 3.477e-05, "MEAN_MOTION_DDOT": 0}, "tle": {"line1": "1 35196U 99025DPC 25346.81360499  .00003477  00000+0  13206-2 0  9993", "line2": "2 35196  98.5367   1.9816 0214444 338.1391 204.7781 14.19786868891359"}}, "geometry": {"type": "Point", "coordinates": [-179.4206666596184, -16.15310094530379]}}, {"type": "Feature", "properties": {"norad_id": 35200, "name": "FENGYUN 1C DEB", "group": "fengyun-1c-debris", "lat": -54.59398502743313, "lon": -22.09829676994402, "alt_km": 1203.0587979401134, "timestamp": "2025-12-13T22:39:29.997930+00:00", "meta": {"OBJECT_NAME": "FENGYUN 1C DEB", "OBJECT_ID": "1999-025DPG", "EPOCH": "2025-12-10T21:42:32.770944", "MEAN_MOTION": 13.41957834, "ECCENTRICITY": 0.0353291, "INCLINATION": 98.8704, "RA_OF_ASC_NODE": 322.5346, "ARG_OF_PERICENTER": 64.8789, "MEAN_ANOMALY": 326.8003, "EPHEMERIS_TYPE": 0, "CLASSIFICATION_TYPE": "U", "NORAD_CAT_ID": 35200, "ELEMENT_SET_NO": 999, "REV_AT_EPOCH": 65879, "BSTAR": 0.00059322, "MEAN_MOTION_DOT": 4.47e-06, "MEAN_MOTION_DDOT": 0}, "tle": {"line1": "1 35200U 99025DPG 25344.90454596  .00000447  00000+0  59322-3 0  9993", "line2": "2 35200  98.8704 322.5346 0353291  64.8789 326.8003 13.41957834658790"}}, "geometry": {"type": "Point", "coordinates": [-22.09829676994402, -54.59398502743313]}}, {"type": "Feature", "properties": {"norad_id": 35201, "name": "FENGYUN 1C DEB", "group": "fengyun-1c-debris", "lat": 1.5031144961572889, "lon": 177.17402103452054, "alt_km": 856.8340252828684, "timestamp": "2025-12-13T22:39:29.997940+00:00", "meta": {"OBJECT_NAME": "FENGYUN 1C DEB", "OBJECT_ID": "1999-025DPH", "EPOCH": "2025-12-13T06:34:18.306336", "MEAN_MOTION": 14.11052804, "ECCENTRICITY": 0.00058546, "INCLINATION": 98.708, "RA_OF_ASC_NODE": 356.2938, "ARG_OF_PERICENTER": 247.5151, "MEAN_ANOMALY": 127.9591, "EPHEMERIS_TYPE": 0, "CLASSIFICATION_TYPE": "U", "NORAD_CAT_ID": 35201, "ELEMENT_SET_NO": 999, "REV_AT_EPOCH": 87027, "BSTAR": 0.00014250021, "MEAN_MOTION_DOT": 2.14e-06, "MEAN_MOTION_DDOT": 0}, "tle": {"line1": "1 35201U 99025DPH 25347.27382299  .00000214  00000+0  14250-3 0  9990", "line2": "2 35201  98.7080 356.2938 0005854 247.5151 127.9591 14.11052804870272"}}, "geometry": {"type": "Point", "coordinates": [177.17402103452054, 1.5031144961572889]}}, {"type": "Feature", "properties": {"norad_id": 35202, "name": "FENGYUN 1C DEB", "group": "fengyun-1c-debris", "lat": 26.17024245008961, "lon": -142.0245860254678, "alt_km": 1362.7740935374932, "timestamp": "2025-12-13T22:39:29.997950+00:00", "meta": {"OBJECT_NAME": "FENGYUN 1C DEB", "OBJECT_ID": "1999-025DPJ", "EPOCH": "2025-12-10T09:21:24.258240", "MEAN_MOTION": 13.34741042, "ECCENTRICITY": 0.03739815, "INCLINATION": 100.0904, "RA_OF_ASC_NODE": 29.443, "ARG_OF_PERICENTER": 13.8242, "MEAN_ANOMALY": 347.2795, "EPHEMERIS_TYPE": 0, "CLASSIFICATION_TYPE": "U", "NORAD_CAT_ID": 35202, "ELEMENT_SET_NO": 999, "REV_AT_EPOCH": 56945, "BSTAR": 0.00075501858, "MEAN_MOTION_DOT": 5.19e-06, "MEAN_MOTION_DDOT": 0}, "tle": {"line1": "1 35202U 99025DPJ 25344.38986410  .00000519  00000+0  75502-3 0  9990", "line2": "2 35202 100.0904  29.4430 0373981  13.8242 347.2795 13.34741042569456"}}, "geometry": {"type": "Point", "coordinates": [-142.0245860254678, 26.17024245008961]}}, {"type": "Feature", "properties": {"norad_id": 35203, "name": "FENGYUN 1C DEB", "group": "fengyun-1c-debris", "lat": -23.348871660488644, "lon": 129.8305621066877, "alt_km": 892.9944178513779, "timestamp": "2025-12-13T22:39:29.997983+00:00", "meta": {"OBJECT_NAME": "FENGYUN 1C DEB", "OBJECT_ID": "1999-025DPK", "EPOCH": "2025-12-11T04:29:49.245792", "MEAN_MOTION": 13.26418458, "ECCENTRICITY": 0.05113475, "INCLINATION": 102.0737, "RA_OF_ASC_NODE": 311.9182, "ARG_OF_PERICENTER": 162.6635, "MEAN_ANOMALY": 199.2677, "EPHEMERIS_TYPE": 0, "CLASSIFICATION_TYPE": "U", "NORAD_CAT_ID": 35203, "ELEMENT_SET_NO": 999, "REV_AT_EPOCH": 59630, "BSTAR": 0.0022866548, "MEAN_MOTION_DOT": 2.002e-05, "MEAN_MOTION_DDOT": 0}, "tle": {"line1": "1 35203U 99025DPK 25345.18737553  .00002002  00000+0  22867-2 0  9996", "line2": "2 35203 102.0737 311.9182 0511347 162.6635 199.2677 13.26418458596306"}}, "geometry": {"type": "Point", "coordinates": [129.8305621066877, -23.348871660488644]}}]}